LEMUR-2-AMANDA-SVANTE   
1 48269U 21034B   26068.77637527  .00030872  00000+0  11134-2 0  9996
2 48269  97.5829 144.8625 0002703 205.4721 154.6385 15.28469003265849
STARLINK-36488          
1 67306U 26002B   26068.41525493  .00036487  00000+0  13291-2 0  9992
2 67306  43.0006 327.1045 0000433 359.2069   0.8782 15.27575874 11034
